DMSP 5D-3 F16 (USA 172) 
1 28054U 03048A   26120.63918553  .00000048  00000+0  48524-4 0  9993
2 28054  98.9925 144.1457 0005930 283.9181 186.1131 14.14477860162763
METEOSAT-9 (MSG-2)      
1 28912U 05049B   26119.92551806  .00000125  00000+0  00000+0 0  9991
2 28912   9.2553  54.6343 0000723   4.6921 177.4357  1.00276836  6516
DMSP 5D-3 F17 (USA 191) 
1 29522U 06050A   26120.58079406  .00000084  00000+0  65867-4 0  9998
2 29522  98.7394 128.1234 0009893 185.2423 174.8649 14.14983832  5699
FENGYUN 3A              
1 32958U 08026A   26120.54121631  .00000075  00000+0  55969-4 0  9996
2 32958  98.6862  62.2730 0007592 265.4541  94.5768 14.19560754928648
GOES 14                 
1 35491U 09033A   26120.59434664 -.00000064  00000+0  00000+0 0  9998
2 35491   1.5688  83.5884 0001919 322.3545 195.0316  1.00117604  6115
DMSP 5D-3 F18 (USA 210) 
1 35951U 09057A   26120.54879669  .00000279  00000+0  16758-3 0  9996
2 35951  98.9020 101.4288 0011729  31.6536 328.5341 14.14868802852857
EWS-G2 (GOES 15)        
1 36411U 10008A   26120.57071581  .00000025  00000+0  00000+0 0  9994
2 36411   1.1519  83.7072 0004343  23.6988  19.8340  1.00273156 59162
COMS 1                  
1 36744U 10032A   26120.36965644 -.00000341  00000+0  00000+0 0  9991
2 36744   4.6841  75.9895 0001206 329.1308  74.4136  1.00271439 50611
FENGYUN 3B              
1 37214U 10059A   26120.64887057  .00000125  00000+0  87992-4 0  9994
2 37214  98.9667 166.4524 0021472 324.0166 146.2199 14.14830021800701
SUOMI NPP               
1 37849U 11061A   26120.62129861  .00000055  00000+0  47099-4 0  9998
2 37849  98.7932  61.8295 0002821  95.8125 264.3373 14.19506826751693
METEOSAT-10 (MSG-3)     
1 38552U 12035B   26120.17266921 -.00000004  00000+0  00000+0 0  9992
2 38552   4.5602  61.2241 0002154 318.9562 260.2395  1.00269062 50372
METOP-B                 
1 38771U 12049A   26120.60492336  .00000114  00000+0  71850-4 0  9996
2 38771  98.6543 173.0445 0003497 115.9796 244.1742 14.21434435706501
INSAT-3D                
1 39216U 13038B   26120.51254470 -.00000336  00000+0  00000+0 0  9996
2 39216   1.8043  83.1150 0001520 293.6246 155.7520  1.00270573 46603
FENGYUN 3C              
1 39260U 13052A   26120.62163527  .00000086  00000+0  64706-4 0  9994
2 39260  98.4955  96.6894 0015040 155.9815 204.2064 14.15743580651837
METEOR-M 2              
1 40069U 14037A   26120.56168071  .00000215  00000+0  11772-3 0  9997
2 40069  98.5083  97.9951 0005787 163.4780 196.6587 14.21448089612552
HIMAWARI-8              
1 40267U 14060A   26120.51471137  .00000000  00000+0  00000+0 0  9998
2 40267   0.0111 275.2000 0001025 139.7870 129.4138  1.00267237 42285
FENGYUN 2G              
1 40367U 14090A   26119.86493780 -.00000301  00000+0  00000+0 0  9991
2 40367   5.5193  73.3864 0002699 141.6324  53.9777  1.00271666 41511
METEOSAT-11 (MSG-4)     
1 40732U 15034A   26120.27484271  .00000065  00000+0  00000+0 0  9994
2 40732   3.0822  71.3569 0001562 345.7227 269.5726  1.00265235  6735
ELEKTRO-L 2             
1 41105U 15074A   26120.54110366 -.00000113  00000+0  00000+0 0  9999
2 41105   6.5771  71.0981 0002154 266.1096  61.5530  1.00270945 38028
INSAT-3DR               
1 41752U 16054A   26120.57288249 -.00000075  00000+0  00000+0 0  9992
2 41752   0.1243  86.6498 0011295 194.9035 217.1940  1.00272224 35340
HIMAWARI-9              
1 41836U 16064A   26120.30084281 -.00000273  00000+0  00000+0 0  9997
2 41836   0.0470 103.9776 0001067 324.8626  38.4931  1.00272755 34737
GOES 16                 
1 41866U 16071A   26120.53743567 -.00000088  00000+0  00000+0 0  9996
2 41866   0.2220  85.4309 0001358 260.7344 321.0743  1.00271606 34623
FENGYUN 4A              
1 41882U 16077A   26120.79659144 -.00000353  00000+0  00000+0 0  9990
2 41882   2.2043  80.7653 0007845 139.3490  49.0228  1.00265298 34452
CYGFM05                 
1 41884U 16078A   26120.62557302  .00022912  00000+0  33496-3 0  9991
2 41884  34.9574 215.0291 0006812  62.9701 297.1718 15.54613654521341
CYGFM04                 
1 41885U 16078B   26120.54314971  .00027659  00000+0  34442-3 0  9991
2 41885  34.9323 185.5150 0006129 111.5218 248.6160 15.58885246521551
CYGFM02                 
1 41886U 16078C   26120.49678469  .00030791  00000+0  34965-3 0  9992
2 41886  34.9403 181.5851 0007225 111.7857 248.3637 15.61264004521704
CYGFM01                 
1 41887U 16078D   26120.56978689  .00023998  00000+0  34300-3 0  9992
2 41887  34.9403 216.8235 0006539  55.5684 304.5657 15.55221908521282
CYGFM08                 
1 41888U 16078E   26120.54185123  .00026149  00000+0  34206-3 0  9990
2 41888  34.9430 197.7624 0007911  88.9951 271.1680 15.57575897521538
CYGFM07                 
1 41890U 16078G   26120.56796199  .00026240  00000+0  34234-3 0  9999
2 41890  34.9445 185.9705 0006513 110.2584 249.8841 15.57657817521561
CYGFM03                 
1 41891U 16078H   26120.60297817  .00026031  00000+0  33959-3 0  9999
2 41891  34.9400 187.6924 0005692  97.4114 262.7257 15.57667023521540
FENGYUN 3D              
1 43010U 17072A   26120.57669623 -.00000221  00000+0 -82497-4 0  9990
2 43010  99.0094  94.1471 0001542 142.5475 217.5808 14.19727935438236
NOAA 20 (JPSS-1)        
1 43013U 17073A   26120.56427486  .00000068  00000+0  53284-4 0  9991
2 43013  98.7751  60.4557 0002036  66.7784 293.3606 14.19548475437715
GOES 17                 
1 43226U 18022A   26120.54046902 -.00000180  00000+0  00000+0 0  9999
2 43226   0.8171  86.3580 0000688 300.4914 296.7152  1.00271692 29943
FENGYUN 2H              
1 43491U 18050A   26120.50257799 -.00000126  00000+0  00000+0 0  9998
2 43491   2.9107  79.6110 0001413 154.5476 244.5141  1.00274595 28966
METOP-C                 
1 43689U 18087A   26119.57089331  .00000115  00000+0  72486-4 0  9996
2 43689  98.6676 180.0552 0000665  39.0689 321.0536 14.21512722387923
GEO-KOMPSAT-2A          
1 43823U 18100A   26120.51228469  .00000000  00000+0  00000+0 0  9996
2 43823   0.0188  59.2822 0002476  14.4205  97.4256  1.00267600 27152
METEOR-M2 2             
1 44387U 19038A   26120.61754369  .00000006  00000+0  22643-4 0  9995
2 44387  98.9126 107.2063 0001856 118.2294 241.9072 14.24352168354529
ARKTIKA-M 1             
1 47719U 21016A   26118.14887370 -.00000091  00000+0  00000+0 0  9993
2 47719  63.2267  64.8413 7268792 269.7019  14.9377  2.00608233 37787
FENGYUN 3E              
1 49008U 21062A   26120.56597058  .00000210  00000+0  11947-3 0  9995
2 49008  98.7500 124.5044 0000958 180.8595 179.2580 14.19900400249825
GOES 18                 
1 51850U 22021A   26120.53102230  .00000099  00000+0  00000+0 0  9999
2 51850   0.0098   7.5379 0000636  84.0025 181.1000  1.00272949  6116
NOAA 21 (JPSS-2)        
1 54234U 22150A   26120.59849518  .00000043  00000+0  41255-4 0  9995
2 54234  98.7039  60.1929 0001599  13.6451 346.4768 14.19556461179790
METEOSAT-12 (MTG-I1)    
1 54743U 22170C   26120.34417633 -.00000006  00000+0  00000+0 0  9992
2 54743   0.7280  22.9701 0001096 346.8462 332.0241  1.00270613 12493
TIANMU-1 03             
1 55973U 23039A   26120.55961484  .00015635  00000+0  32311-3 0  9991
2 55973  97.5214 292.7201 0001728 258.8027 101.3028 15.45916515173471
TIANMU-1 04             
1 55974U 23039B   26120.56671182  .00016127  00000+0  32698-3 0  9991
2 55974  97.5151 291.8800 0002462 254.2535 105.8443 15.46467118173489
TIANMU-1 05             
1 55975U 23039C   26120.53824757  .00015334  00000+0  31763-3 0  9998
2 55975  97.5195 292.3301 0001499 298.7174  61.3924 15.45853682173452
TIANMU-1 06             
1 55976U 23039D   26120.56746477  .00016031  00000+0  32591-3 0  9999
2 55976  97.5205 292.9494 0001801 287.1958  72.9093 15.46392173173485
FENGYUN 3G              
1 56232U 23055A   26120.56649763  .00025148  00000+0  40697-3 0  9998
2 56232  49.9933 231.6388 0006114 340.0778  19.9949 15.52594022172601
METEOR-M2 3             
1 57166U 23091A   26120.60109876  .00000006  00000+0  21367-4 0  9996
2 57166  98.6118 176.5441 0003062 322.2533  37.8431 14.24042599147748
TIANMU-1 07             
1 57399U 23101A   26120.60400951  .00006255  00000+0  22260-3 0  9998
2 57399  97.2632 172.3742 0001016 354.7768   5.3462 15.29307986154378
TIANMU-1 08             
1 57400U 23101B   26120.57143323  .00006005  00000+0  21363-3 0  9990
2 57400  97.2622 172.1185 0002088 293.1804  66.9217 15.29336256154368
TIANMU-1 09             
1 57401U 23101C   26120.62055620  .00006618  00000+0  23510-3 0  9995
2 57401  97.2579 171.6082 0001495 346.6527  13.4673 15.29346759154370
TIANMU-1 10             
1 57402U 23101D   26120.58773176  .00006287  00000+0  22325-3 0  9999
2 57402  97.2659 172.5773 0002539 317.4576  42.6467 15.29381199154368
FENGYUN 3F              
1 57490U 23111A   26120.62139784  .00000041  00000+0  39796-4 0  9996
2 57490  98.6858 191.5117 0000979 115.5517 244.5761 14.19930444142113
ARKTIKA-M 2             
1 58584U 23198A   26110.92958556  .00000217  00000+0  00000+0 0  9990
2 58584  63.2192 160.7194 6953303 267.0904  18.4710  2.00586979 17173
TIANMU-1 11             
1 58645U 23205A   26120.60150226  .00005662  00000+0  21945-3 0  9995
2 58645  97.3476 142.9168 0009585 161.4319 198.7271 15.26495104130263
TIANMU-1 12             
1 58646U 23205B   26120.57050755  .00005627  00000+0  21853-3 0  9997
2 58646  97.3466 142.6525 0008371 144.4683 215.7114 15.26442486130243
TIANMU-1 13             
1 58647U 23205C   26120.59964861  .00005955  00000+0  23067-3 0  9995
2 58647  97.3493 142.9429 0009112 129.2884 230.9164 15.26496708130248
TIANMU-1 14             
1 58648U 23205D   26119.53626887  .00005743  00000+0  22284-3 0  9996
2 58648  97.3431 141.1192 0009623 136.4563 223.7437 15.26455851130089
TIANMU-1 19             
1 58660U 23208A   26120.64635584  .00009028  00000+0  30540-3 0  9995
2 58660  97.4451 236.7464 0006414 119.9818 240.2060 15.30827873130058
TIANMU-1 20             
1 58661U 23208B   26120.59046880  .00009133  00000+0  29764-3 0  9998
2 58661  97.4391 237.2765 0008457 128.6824 231.5176 15.32015681130133
TIANMU-1 21             
1 58662U 23208C   26120.58318650  .00010603  00000+0  32231-3 0  9992
2 58662  97.4450 239.7495 0008443 123.1942 237.0111 15.34196949130266
TIANMU-1 22             
1 58663U 23208D   26120.61297751  .00008487  00000+0  29147-3 0  9994
2 58663  97.4447 236.6871 0004876 136.4471 223.7156 15.30365824130051
TIANMU-1 15             
1 58700U 24004A   26120.58200741  .00006121  00000+0  23707-3 0  9999
2 58700  97.4671 306.7796 0007897 147.0741 213.0991 15.26510587128511
TIANMU-1 16             
1 58701U 24004B   26120.56424225  .00005969  00000+0  23106-3 0  9995
2 58701  97.4616 306.0492 0006288 147.3329 212.8300 15.26548591128512
TIANMU-1 17             
1 58702U 24004C   26120.61425514  .00005946  00000+0  23124-3 0  9999
2 58702  97.4645 306.5684 0006085 151.5302 208.6270 15.26396293128515
TIANMU-1 18             
1 58703U 24004D   26120.59828299  .00005994  00000+0  23236-3 0  9991
2 58703  97.4663 306.7790 0004967 143.5950 216.5627 15.26508415128518
INSAT-3DS               
1 58990U 24033A   26120.57961295 -.00000154  00000+0  00000+0 0  9997
2 58990   0.1012  87.4441 0001923 307.8640 113.9354  1.00272752 46594
METEOR-M2 4             
1 59051U 24039A   26120.63214801  .00000003  00000+0  20900-4 0  9991
2 59051  98.6981  80.5374 0006265 314.9102  45.1567 14.22424403112502
GOES 19                 
1 60133U 24119A   26120.54324236 -.00000246  00000+0  00000+0 0  9991
2 60133   0.0012 331.9190 0000769 118.8084 248.1365  1.00272105  6481
FENGYUN 3H              
1 65815U 25219A   26120.54668772  .00000052  00000+0  45055-4 0  9999
2 65815  98.6747  62.2493 0000937 108.6090 251.5188 14.19944816 30625
